#cP2005  4 24 00 00 00.00000000    8638 U+u   IGS00 FIT DEOS
## 1320      0.00000000    10.00000000 53484 0.0000000000000
+    1   L06  0  0  0  0  0  0  0  0  0  0  0  0  0  0  0  0
+          0  0  0  0  0  0  0  0  0  0  0  0  0  0  0  0  0
+          0  0  0  0  0  0  0  0  0  0  0  0  0  0  0  0  0
+          0  0  0  0  0  0  0  0  0  0  0  0  0  0  0  0  0
+          0  0  0  0  0  0  0  0  0  0  0  0  0  0  0  0  0
++         0  0  0  0  0  0  0  0  0  0  0  0  0  0  0  0  0
++         0  0  0  0  0  0  0  0  0  0  0  0  0  0  0  0  0
++         0  0  0  0  0  0  0  0  0  0  0  0  0  0  0  0  0
++         0  0  0  0  0  0  0  0  0  0  0  0  0  0  0  0  0
++         0  0  0  0  0  0  0  0  0  0  0  0  0  0  0  0  0
%c cc cc ccc ccc cccc cccc cccc cccc ccccc ccccc ccccc ccccc
%c cc cc ccc ccc cccc cccc cccc cccc ccccc ccccc ccccc ccccc
%f   .0000000   .000000000   .00000000000   .000000000000000
%f   .0000000   .000000000   .00000000000   .000000000000000
%i    0    0    0    0      0      0      0      0         0
%i    0    0    0    0      0      0      0      0         0
/* NOTE: CCCCCCCCCCCCCCCCCCCCCCCCCCCCCCCCCCCCCCCCCCCCCCCCCCC
/* CCCCCCCCCCCCCCCCCCCCCCCCCCCCCCCCCCCCCCCCCCCCCCCCCCCCCCCCC
/* CCCCCCCCCCCCCCCCCCCCCCCCCCCCCCCCCCCCCCCCCCCCCCCCCCCCCCCCC
/* CCCCCCCCCCCCCCCCCCCCCCCCCCCCCCCCCCCCCCCCCCCCCCCCCCCCCCCCC
*  2005 04 24 03 52 30.00000000
PL06   1097.273849  -2165.648856   6275.825094 999999.999999
*  2005 04 24 03 52 40.00000000
PL06   1072.653040  -2098.196977   6302.876192 999999.999999
*  2005 04 24 03 52 50.00000000
PL06   1047.991784  -2030.437112   6329.104390 999999.999999
*  2005 04 24 03 53 00.00000000
PL06   1023.293723  -1962.377998   6354.506286 999999.999999
*  2005 04 24 03 53 10.00000000
PL06    998.562494  -1894.028414   6379.078587 999999.999999
*  2005 04 24 03 53 20.00000000
PL06    973.801722  -1825.397184   6402.818105 999999.999999
*  2005 04 24 03 53 30.00000000
PL06    949.015024  -1756.493171   6425.721763 999999.999999
*  2005 04 24 03 53 40.00000000
PL06    924.206007  -1687.325281   6447.786592 999999.999999
*  2005 04 24 03 53 50.00000000
PL06    899.378269  -1617.902455   6469.009732 999999.999999
*  2005 04 24 03 54 00.00000000
PL06    874.535394  -1548.233674   6489.388433 999999.999999
*  2005 04 24 03 54 10.00000000
PL06    849.680958  -1478.327956   6508.920054 999999.999999
*  2005 04 24 03 54 20.00000000
PL06    824.818524  -1408.194351   6527.602063 999999.999999
*  2005 04 24 03 54 30.00000000
PL06    799.951643  -1337.841947   6545.432042 999999.999999
*  2005 04 24 03 54 40.00000000
PL06    775.083852  -1267.279861   6562.407678 999999.999999
*  2005 04 24 03 54 50.00000000
PL06    750.218675  -1196.517247   6578.526774 999999.999999
*  2005 04 24 03 55 00.00000000
PL06    725.359624  -1125.563285   6593.787241 999999.999999
*  2005 04 24 03 55 10.00000000
PL06    700.510193  -1054.427186   6608.187104 999999.999999
*  2005 04 24 03 55 20.00000000
PL06    675.673866   -983.118191   6621.724497 999999.999999
*  2005 04 24 03 55 30.00000000
PL06    650.854105   -911.645565   6634.397669 999999.999999
*  2005 04 24 03 55 40.00000000
PL06    626.054362   -840.018600   6646.204979 999999.999999
*  2005 04 24 03 55 50.00000000
PL06    601.278069   -768.246614   6657.144900 999999.999999
*  2005 04 24 03 56 00.00000000
PL06    576.528642   -696.338946   6667.216014 999999.999999
*  2005 04 24 03 56 10.00000000
PL06    551.809479   -624.304958   6676.417018 999999.999999
*  2005 04 24 03 56 20.00000000
PL06    527.123962   -552.154034   6684.746722 999999.999999
*  2005 04 24 03 56 30.00000000
PL06    502.475453   -479.895577   6692.204046 999999.999999
*  2005 04 24 03 56 40.00000000
PL06    477.867297   -407.539011   6698.788027 999999.999999
*  2005 04 24 03 56 50.00000000
PL06    453.302818   -335.093773   6704.497812 999999.999999
*  2005 04 24 03 57 00.00000000
PL06    428.785324   -262.569319   6709.332663 999999.999999
*  2005 04 24 03 57 10.00000000
PL06    404.318099   -189.975121   6713.291956 999999.999999
*  2005 04 24 03 57 20.00000000
PL06    379.904410   -117.320661   6716.375178 999999.999999
*  2005 04 24 03 57 30.00000000
PL06    355.547501    -44.615436   6718.581933 999999.999999
*  2005 04 24 03 57 40.00000000
PL06    331.250595     28.131047   6719.911934 999999.999999
*  2005 04 24 03 57 50.00000000
PL06    307.016894    100.909270   6720.365012 999999.999999
*  2005 04 24 03 58 00.00000000
PL06    282.849578    173.709707   6719.941108 999999.999999
*  2005 04 24 03 58 10.00000000
PL06    258.751802    246.522825   6718.640279 999999.999999
*  2005 04 24 03 58 20.00000000
PL06    234.726702    319.339084   6716.462695 999999.999999
*  2005 04 24 03 58 30.00000000
PL06    210.777388    392.148938   6713.408638 999999.999999
*  2005 04 24 03 58 40.00000000
PL06    186.906946    464.942839   6709.478507 999999.999999
*  2005 04 24 03 58 50.00000000
PL06    163.118438    537.711235   6704.672810 999999.999999
*  2005 04 24 03 59 00.00000000
PL06    139.414903    610.444576   6698.992173 999999.999999
*  2005 04 24 03 59 10.00000000
PL06    115.799354    683.133307   6692.437333 999999.999999
*  2005 04 24 03 59 20.00000000
PL06     92.274778    755.767879   6685.009139 999999.999999
*  2005 04 24 03 59 30.00000000
PL06     68.844137    828.338742   6676.708556 999999.999999
*  2005 04 24 03 59 40.00000000
PL06     45.510367    900.836352   6667.536660 999999.999999
*  2005 04 24 03 59 50.00000000
PL06     22.276377    973.251168   6657.494641 999999.999999
*  2005 04 24 04 00 00.00000000
PL06     -0.854949   1045.573659   6646.583801 999999.999999
*  2005 04 24 04 00 10.00000000
PL06    -23.880758   1117.794296   6634.805556 999999.999999
*  2005 04 24 04 00 20.00000000
PL06    -46.798220   1189.903564   6622.161433 999999.999999
*  2005 04 24 04 00 30.00000000
PL06    -69.604536   1261.891956   6608.653071 999999.999999
*  2005 04 24 04 00 40.00000000
PL06    -92.296933   1333.749976   6594.282222 999999.999999
*  2005 04 24 04 00 50.00000000
PL06   -114.872669   1405.468140   6579.050749 999999.999999
*  2005 04 24 04 01 00.00000000
PL06   -137.329029   1477.036979   6562.960628 999999.999999
*  2005 04 24 04 01 10.00000000
PL06   -159.663326   1548.447039   6546.013944 999999.999999
*  2005 04 24 04 01 20.00000000
PL06   -181.872904   1619.688883   6528.212894 999999.999999
*  2005 04 24 04 01 30.00000000
PL06   -203.955138   1690.753088   6509.559786 999999.999999
*  2005 04 24 04 01 40.00000000
PL06   -225.907430   1761.630254   6490.057039 999999.999999
*  2005 04 24 04 01 50.00000000
PL06   -247.727214   1832.310998   6469.707180 999999.999999
*  2005 04 24 04 02 00.00000000
PL06   -269.411955   1902.785959   6448.512848 999999.999999
*  2005 04 24 04 02 10.00000000
PL06   -290.959149   1973.045798   6426.476790 999999.999999
*  2005 04 24 04 02 20.00000000
PL06   -312.366322   2043.081201   6403.601865 999999.999999
*  2005 04 24 04 02 30.00000000
PL06   -333.631034   2112.882877   6379.891037 999999.999999
*  2005 04 24 04 02 40.00000000
PL06   -354.750874   2182.441562   6355.347382 999999.999999
*  2005 04 24 04 02 50.00000000
PL06   -375.723466   2251.748018   6329.974081 999999.999999
*  2005 04 24 04 03 00.00000000
PL06   -396.546462   2320.793037   6303.774427 999999.999999
*  2005 04 24 04 03 10.00000000
PL06   -417.217552   2389.567440   6276.751817 999999.999999
*  2005 04 24 04 03 20.00000000
PL06   -437.734455   2458.062079   6248.909758 999999.999999
*  2005 04 24 04 03 30.00000000
PL06   -458.094924   2526.267837   6220.251861 999999.999999
*  2005 04 24 04 03 40.00000000
PL06   -478.296746   2594.175634   6190.781847 999999.999999
*  2005 04 24 04 03 50.00000000
PL06   -498.337741   2661.776422   6160.503539 999999.999999
*  2005 04 24 04 04 00.00000000
PL06   -518.215764   2729.061189   6129.420869 999999.999999
*  2005 04 24 04 04 10.00000000
PL06   -537.928703   2796.020963   6097.537870 999999.999999
*  2005 04 24 04 04 20.00000000
PL06   -557.474481   2862.646808   6064.858683 999999.999999
*  2005 04 24 04 04 30.00000000
PL06   -576.851054   2928.929828   6031.387550 999999.999999
*  2005 04 24 04 04 40.00000000
PL06   -596.056414   2994.861170   5997.128817 999999.999999
*  2005 04 24 04 04 50.00000000
PL06   -615.088588   3060.432020   5962.086933 999999.999999
*  2005 04 24 04 05 00.00000000
PL06   -633.945639   3125.633609   5926.266448 999999.999999
*  2005 04 24 04 05 10.00000000
PL06   -652.625663   3190.457212   5889.672015 999999.999999
*  2005 04 24 04 05 20.00000000
PL06   -671.126793   3254.894148   5852.308387 999999.999999
*  2005 04 24 04 05 30.00000000
PL06   -689.447198   3318.935786   5814.180417 999999.999999
*  2005 04 24 04 05 40.00000000
PL06   -707.585081   3382.573539   5775.293058 999999.999999
*  2005 04 24 04 05 50.00000000
PL06   -725.538683   3445.798872   5735.651365 999999.999999
*  2005 04 24 04 06 00.00000000
PL06   -743.306281   3508.603298   5695.260487 999999.999999
*  2005 04 24 04 06 10.00000000
PL06   -760.886186   3570.978384   5654.125674 999999.999999
*  2005 04 24 04 06 20.00000000
PL06   -778.276748   3632.915747   5612.252273 999999.999999
*  2005 04 24 04 06 30.00000000
PL06   -795.476352   3694.407058   5569.645726 999999.999999
*  2005 04 24 04 06 40.00000000
PL06   -812.483420   3755.444045   5526.311573 999999.999999
*  2005 04 24 04 06 50.00000000
PL06   -829.296410   3816.018490   5482.255448 999999.999999
*  2005 04 24 04 07 00.00000000
PL06   -845.913818   3876.122231   5437.483079 999999.999999
*  2005 04 24 04 07 10.00000000
PL06   -862.334177   3935.747167   5392.000290 999999.999999
*  2005 04 24 04 07 20.00000000
PL06   -878.556054   3994.885253   5345.812997 999999.999999
*  2005 04 24 04 07 30.00000000
PL06   -894.578059   4053.528507   5298.927209 999999.999999
*  2005 04 24 04 07 40.00000000
PL06   -910.398835   4111.669007   5251.349026 999999.999999
*  2005 04 24 04 07 50.00000000
PL06   -926.017063   4169.298896   5203.084641 999999.999999
EOF
